{
  "type": "FeatureCollection",
  "features": [
    {
      "type": "Feature",
      "properties": {
        "norad_id": 29843,
        "name": "FENGYUN 1C DEB",
        "group": "fengyun-1c-debris",
        "lat": 4.721389760136757,
        "lon": 3.423761293017463,
        "alt_km": 870.6646928061737,
        "timestamp": "2025-12-10T09:57:44.970920+00:00",
        "meta_object_name": "FENGYUN 1C DEB",
        "meta_object_id": "1999-025EM",
        "meta_epoch": "2025-12-10T02:59:21.604704",
        "meta_mean_motion": 14.28557402,
        "meta_eccentricity": 0.0191843,
        "meta_inclination": 99.0375,
        "meta_ra_of_asc_node": 182.3696,
        "meta_arg_of_pericenter": 298.3274,
        "meta_mean_anomaly": 185.2539,
        "meta_ephemeris_type": 0,
        "meta_classification_type": "U",
        "meta_norad_cat_id": 29843,
        "meta_element_set_no": 999,
        "meta_rev_at_epoch": 98244,
        "meta_bstar": 0.00026918,
        "meta_mean_motion_dot": 7.68e-06,
        "meta_mean_motion_ddot": 0,
        "tle_line1": "1 29843U 99025EM  25344.12455561  .00000768  00000+0  26918-3 0  9997",
        "tle_line2": "2 29843  99.0375 182.3696 0191843 298.3274 185.2539 14.28557402982445"
      },
      "geometry": {
        "type": "Point",
        "coordinates": [
          3.423761293017463,
          4.721389760136757
        ]
      }
    },
    {
      "type": "Feature",
      "properties": {
        "norad_id": 29844,
        "name": "FENGYUN 1C DEB",
        "group": "fengyun-1c-debris",
        "lat": -11.700265544223047,
        "lon": 63.81943597117841,
        "alt_km": 674.7591655355627,
        "timestamp": "2025-12-10T09:57:44.970930+00:00",
        "meta_object_name": "FENGYUN 1C DEB",
        "meta_object_id": "1999-025EN",
        "meta_epoch": "2025-12-09T16:18:13.372416",
        "meta_mean_motion": 14.31971925,
        "meta_eccentricity": 0.0167918,
        "meta_inclination": 98.9359,
        "meta_ra_of_asc_node": 244.9289,
        "meta_arg_of_pericenter": 176.0112,
        "meta_mean_anomaly": 184.2454,
        "meta_ephemeris_type": 0,
        "meta_classification_type": "U",
        "meta_norad_cat_id": 29844,
        "meta_element_set_no": 999,
        "meta_rev_at_epoch": 98297,
        "meta_bstar": 0.00067697,
        "meta_mean_motion_dot": 2.071e-05,
        "meta_mean_motion_ddot": 0,
        "tle_line1": "1 29844U 99025EN  25343.67932144  .00002071  00000+0  67697-3 0  9992",
        "tle_line2": "2 29844  98.9359 244.9289 0167918 176.0112 184.2454 14.31971925982975"
      },
      "geometry": {
        "type": "Point",
        "coordinates": [
          63.81943597117841,
          -11.700265544223047
        ]
      }
    },
    {
      "type": "Feature",
      "properties": {
        "norad_id": 29845,
        "name": "FENGYUN 1C DEB",
        "group": "fengyun-1c-debris",
        "lat": 50.73054942510788,
        "lon": 175.3880975141843,
        "alt_km": 743.7172972924191,
        "timestamp": "2025-12-10T09:57:44.970940+00:00",
        "meta_object_name": "FENGYUN 1C DEB",
        "meta_object_id": "1999-025EP",
        "meta_epoch": "2025-12-09T23:24:10.671264",
        "meta_mean_motion": 14.26471446,
        "meta_eccentricity": 0.0077807,
        "meta_inclination": 98.5219,
        "meta_ra_of_asc_node": 344.3927,
        "meta_arg_of_pericenter": 139.228,
        "meta_mean_anomaly": 251.1872,
        "meta_ephemeris_type": 0,
        "meta_classification_type": "U",
        "meta_norad_cat_id": 29845,
        "meta_element_set_no": 999,
        "meta_rev_at_epoch": 98070,
        "meta_bstar": 0.0007775,
        "meta_mean_motion_dot": 1.891e-05,
        "meta_mean_motion_ddot": 0,
        "tle_line1": "1 29845U 99025EP  25343.97512351  .00001891  00000+0  77750-3 0  9990",
        "tle_line2": "2 29845  98.5219 344.3927 0077807 139.2280 251.1872 14.26471446980709"
      },
      "geometry": {
        "type": "Point",
        "coordinates": [
          175.3880975141843,
          50.73054942510788
        ]
      }
    },
    {
      "type": "Feature",
      "properties": {
        "norad_id": 29846,
        "name": "FENGYUN 1C DEB",
        "group": "fengyun-1c-debris",
        "lat": -39.44966520625129,
        "lon": -160.91209064921392,
        "alt_km": 835.6227830844164,
        "timestamp": "2025-12-10T09:57:44.970950+00:00",
        "meta_object_name": "FENGYUN 1C DEB",
        "meta_object_id": "1999-025EQ",
        "meta_epoch": "2025-12-10T02:24:32.201280",
        "meta_mean_motion": 14.19089493,
        "meta_eccentricity": 0.0083976,
        "meta_inclination": 98.6555,
        "meta_ra_of_asc_node": 25.981,
        "meta_arg_of_pericenter": 311.9984,
        "meta_mean_anomaly": 101.8962,
        "meta_ephemeris_type": 0,
        "meta_classification_type": "U",
        "meta_norad_cat_id": 29846,
        "meta_element_set_no": 999,
        "meta_rev_at_epoch": 97822,
        "meta_bstar": 0.00020372,
        "meta_mean_motion_dot": 3.97e-06,
        "meta_mean_motion_ddot": 0,
        "tle_line1": "1 29846U 99025EQ  25344.10037270  .00000397  00000+0  20372-3 0  9997",
        "tle_line2": "2 29846  98.6555  25.9810 0083976 311.9984 101.8962 14.19089493978225"
      },
      "geometry": {
        "type": "Point",
        "coordinates": [
          -160.91209064921392,
          -39.44966520625129
        ]
      }
    },
    {
      "type": "Feature",
      "properties": {
        "norad_id": 29847,
        "name": "FENGYUN 1C DEB",
        "group": "fengyun-1c-debris",
        "lat": -59.82718192773986,
        "lon": 144.73602698941758,
        "alt_km": 950.2038410069881,
        "timestamp": "2025-12-10T09:57:44.970960+00:00",
        "meta_object_name": "FENGYUN 1C DEB",
        "meta_object_id": "1999-025ER",
        "meta_epoch": "2025-12-09T22:41:23.358336",
        "meta_mean_motion": 14.02994019,
        "meta_eccentricity": 0.0085387,
        "meta_inclination": 98.9023,
        "meta_ra_of_asc_node": 339.9167,
        "meta_arg_of_pericenter": 46.6103,
        "meta_mean_anomaly": 343.6321,
        "meta_ephemeris_type": 0,
        "meta_classification_type": "U",
        "meta_norad_cat_id": 29847,
        "meta_element_set_no": 999,
        "meta_rev_at_epoch": 96696,
        "meta_bstar": 0.00033117,
        "meta_mean_motion_dot": 4.88e-06,
        "meta_mean_motion_ddot": 0,
        "tle_line1": "1 29847U 99025ER  25343.94540924  .00000488  00000+0  33117-3 0  9996",
        "tle_line2": "2 29847  98.9023 339.9167 0085387  46.6103 343.6321 14.02994019966969"
      },
      "geometry": {
        "type": "Point",
        "coordinates": [
          144.73602698941758,
          -59.82718192773986
        ]
      }
    },
    {
      "type": "Feature",
      "properties": {
        "norad_id": 29848,
        "name": "FENGYUN 1C DEB",
        "group": "fengyun-1c-debris",
        "lat": -76.07008253686391,
        "lon": -4.624558939723947,
        "alt_km": 768.9291505738584,
        "timestamp": "2025-12-10T09:57:44.970970+00:00",
        "meta_object_name": "FENGYUN 1C DEB",
        "meta_object_id": "1999-025ES",
        "meta_epoch": "2025-12-09T12:47:03.227136",
        "meta_mean_motion": 14.20537618,
        "meta_eccentricity": 0.0117308,
        "meta_inclination": 98.2482,
        "meta_ra_of_asc_node": 210.3424,
        "meta_arg_of_pericenter": 304.6503,
        "meta_mean_anomaly": 124.8666,
        "meta_ephemeris_type": 0,
        "meta_classification_type": "U",
        "meta_norad_cat_id": 29848,
        "meta_element_set_no": 999,
        "meta_rev_at_epoch": 97072,
        "meta_bstar": 0.0022680776,
        "meta_mean_motion_dot": 5.185e-05,
        "meta_mean_motion_ddot": 0,
        "tle_line1": "1 29848U 99025ES  25343.53267624  .00005185  00000+0  22681-2 0  9997",
        "tle_line2": "2 29848  98.2482 210.3424 0117308 304.6503 124.8666 14.20537618970728"
      },
      "geometry": {
        "type": "Point",
        "coordinates": [
          -4.624558939723947,
          -76.07008253686391
        ]
      }
    },
    {
      "type": "Feature",
      "properties": {
        "norad_id": 29849,
        "name": "FENGYUN 1C DEB",
        "group": "fengyun-1c-debris",
        "lat": -55.708796526808015,
        "lon": -124.64960957915729,
        "alt_km": 942.2211083382426,
        "timestamp": "2025-12-10T09:57:44.970980+00:00",
        "meta_object_name": "FENGYUN 1C DEB",
        "meta_object_id": "1999-025ET",
        "meta_epoch": "2025-12-09T18:10:37.263072",
        "meta_mean_motion": 14.04879701,
        "meta_eccentricity": 0.0080706,
        "meta_inclination": 99.0112,
        "meta_ra_of_asc_node": 68.1534,
        "meta_arg_of_pericenter": 53.0137,
        "meta_mean_anomaly": 99.105,
        "meta_ephemeris_type": 0,
        "meta_classification_type": "U",
        "meta_norad_cat_id": 29849,
        "meta_element_set_no": 999,
        "meta_rev_at_epoch": 96328,
        "meta_bstar": 0.0015352,
        "meta_mean_motion_dot": 2.496e-05,
        "meta_mean_motion_ddot": 0,
        "tle_line1": "1 29849U 99025ET  25343.75737573  .00002496  00000+0  15352-2 0  9996",
        "tle_line2": "2 29849  99.0112  68.1534 0080706  53.0137  99.1050 14.04879701963286"
      },
      "geometry": {
        "type": "Point",
        "coordinates": [
          -124.64960957915729,
          -55.708796526808015
        ]
      }
    }
  ]
}